SBIRS GEO-1 (USA 230)   
1 37481U 11019A   25161.81572632  .00000116  00000+0  00000+0 0  9990
2 37481   3.7291  52.2810 0002098  17.8352 174.7495  1.00272141 51674
TELSTAR 14R             
1 37602U 11021A   25162.73889299 -.00000261  00000+0  00000+0 0  9992
2 37602   0.0294 283.0591 0003228 137.8560  42.4157  1.00271560 52077
GSAT-8                  
1 37605U 11022A   25161.88331076  .00000103  00000+0  00000+0 0  9990
2 37605   1.1707  86.6154 0001989 210.6994 335.2285  1.00273370 49494
ST-2                    
1 37606U 11022B   25161.95439811 -.00000192  00000+0  00000+0 0  9994
2 37606   0.0173 313.3895 0001885 134.5557 243.1905  1.00268854 51553
ZHONGXING-10            
1 37677U 11026A   25162.51800557 -.00000333  00000+0  00000+0 0  9995
2 37677   0.0905  90.6612 0003654  46.4841  59.9036  1.00270980 51246
SJ-11-03                
1 37730U 11030A   25162.90180402  .00000426  00000+0  90402-4 0  9995
2 37730  97.8833 136.6186 0009542 119.2063 262.3552 14.63710657742999
GLOBALSTAR M083         
1 37739U 11033A   25162.18035385 -.00000100  00000+0  23509-4 0  9990
2 37739  51.9870  62.3798 0000526  69.6802  87.9712 12.62263791646458
GLOBALSTAR M088         
1 37740U 11033B   25161.91605021 -.00000099  00000+0  26381-4 0  9990
2 37740  52.0063 328.7267 0000906 109.3047  47.3449 12.62265419641890
GLOBALSTAR M091         
1 37741U 11033C   25161.85270171 -.00000090  00000+0  75024-4 0  9997
2 37741  52.0007 292.4186 0000786 139.2771  29.5218 12.62268561642380
GLOBALSTAR M085         
1 37742U 11033D   25162.20345917 -.00000070  00000+0  19108-3 0  9997
2 37742  51.9860 242.3943 0000543 163.7683 220.1533 12.62269185643435
GLOBALSTAR M081         
1 37743U 11033E   25162.40047462 -.00000074  00000+0  16420-3 0  9992
2 37743  51.9952 244.5794 0000357 166.5781 271.8374 12.62266345643496
GLOBALSTAR M089         
1 37744U 11033F   25161.82675630 -.00000070  00000+0  18790-3 0  9990
2 37744  51.9907 200.5533 0000224  61.7672 109.7056 12.62264683643880
SES-3                   
1 37748U 11035A   25162.12099709 -.00000083  00000+0  00000+0 0  9992
2 37748   0.3661  86.7700 0002780 337.7120 135.7918  1.00271769 50973
KAZSAT-2                
1 37749U 11035B   25161.45706969 -.00000178  00000+0  00000+0 0  9996
2 37749   0.0397 241.5796 0000981 250.2764  18.2491  1.00269970 49674
NAVSTAR 66 (USA 232)    
1 37753U 11036A   25161.88910780 -.00000077  00000+0  00000+0 0  9995
2 37753  56.7087 346.4487 0135876  60.2056 277.0154  2.00566535101825
BEIDOU-2 IGSO-4         
1 37763U 11038A   25162.50851942  .00000063  00000+0  00000+0 0  9996
2 37763  54.5779 168.9905 0143885 231.1807 137.9290  1.00279191 50921
SJ-11-02                
1 37765U 11039A   25161.95784133  .00000345  00000+0  75475-4 0  9990
2 37765  98.3092  44.7864 0010476 353.0836  17.4278 14.63898945739634
ASTRA 1N                
1 37775U 11041A   25162.39905755  .00000139  00000+0  00000+0 0  9996
2 37775   0.0552  12.4977 0005959  45.5984   4.7385  1.00271924 50688
BSAT-3C (JCSAT-110R)    
1 37776U 11041B   25162.73799640 -.00000332  00000+0  00000+0 0  9995
2 37776   0.0113  12.1699 0000479 136.1893 127.5984  1.00271123 50802
PAKSAT-1R               
1 37779U 11042A   25162.73725411  .00000172  00000+0  00000+0 0  9995
2 37779   0.0620 129.2441 0003453 317.9644 116.5203  1.00274686 50563
HAIYANG-2A              
1 37781U 11043A   25162.82755210 -.00000003  00000+0  39880-4 0  9996
2 37781  99.3319 166.5844 0000982 137.1034 223.0195 13.78817115695895
NIGERIASAT-2            
1 37789U 11044B   25162.90573292  .00000277  00000+0  53850-4 0  9997
2 37789  97.8358 148.5434 0029167 224.8367 167.9691 14.70004400737671
NIGERIASAT-X            
1 37790U 11044C   25162.73841899  .00000266  00000+0  63675-4 0  9995
2 37790  97.8254 161.5675 0013718  65.1843 295.0784 14.60445277736282
RASAT                   
1 37791U 11044D   25162.84699102  .00000380  00000+0  75411-4 0  9994
2 37791  98.0681 254.8426 0019421 287.0686 211.7072 14.67590974738871
APRIZESAT 5             
1 37792U 11044E   25162.71388153  .00000708  00000+0  98963-4 0  9993
2 37792  98.2318  81.0520 0054532 114.4313 246.2601 14.79960926744114
APRIZESAT 6             
1 37793U 11044F   25162.72848874  .00000477  00000+0  76233-4 0  9995
2 37793  98.2609  60.4620 0043491 188.6813 240.9921 14.76081570742637
SES-2                   
1 37809U 11049A   25162.46192965 -.00000177  00000+0  00000+0 0  9994
2 37809   0.0141 332.7419 0002986 109.9078 256.6922  1.00272465 50287
ARABSAT-5C              
1 37810U 11049B   25162.39905755  .00000142  00000+0  00000+0 0  9998
2 37810   0.0472 358.3058 0003619 114.7439 310.6146  1.00268223 50194
EUTELSAT 7 WEST A       
1 37816U 11051A   25161.80183799 -.00000040  00000+0  00000+0 0  9996
2 37816   0.0612 350.6950 0004472 105.7714  84.2966  1.00272688 50178
TACSAT 4                
1 37818U 11052A   25161.52583627  .00002117  00000+0  60262-3 0  9998
2 37818  62.8423  14.2093 4670216 271.9368  37.2204  6.12450590301964
QUETZSAT 1              
1 37826U 11054A   25161.91393674 -.00000222  00000+0  00000+0 0  9999
2 37826   0.0297  48.1343 0003338  44.9075  58.4895  1.00272254 50372
INTELSAT 18 (IS-18)     
1 37834U 11056A   25162.52401610  .00000072  00000+0  00000+0 0  9990
2 37834   0.0012   9.3846 0002085  78.4134 180.9663  1.00272252 50124
EUTELSAT 16A            
1 37836U 11057A   25161.93236873  .00000124  00000+0  00000+0 0  9992
2 37836   0.0655 346.6136 0005456  95.2999 169.2715  1.00273579  3601
JUGNU                   
1 37839U 11058B   25162.87969278  .00000390  00000+0  64400-4 0  9996
2 37839  19.9620  37.8725 0018498 307.0409 146.4575 14.13604365706675
SRMSAT                  
1 37841U 11058D   25162.15679345  .00000391  00000+0  68538-4 0  9990
2 37841  19.9703 145.0044 0011961  82.6071   3.6348 14.11436672705555
VIASAT-1                
1 37843U 11059A   25162.19484440 -.00000005  00000+0  00000+0 0  9995
2 37843   0.0186 335.6855 0002683 108.7699 130.3703  1.00271318 50551
GSAT0101 (GALILEO-PFM)  
1 37846U 11060A   25160.36693457 -.00000077  00000+0  00000+0 0  9996
2 37846  57.0960 351.8675 0003350  45.8661 314.1888  1.70475988 84760
GSAT0102 (GALILEO-FM2)  
1 37847U 11060B   25161.18952721 -.00000075  00000+0  00000+0 0  9998
2 37847  57.0965 351.8455 0003355  10.2218 180.0238  1.70476114 84784
SUOMI NPP               
1 37849U 11061A   25162.86769388  .00000061  00000+0  49956-4 0  9994
2 37849  98.7580 102.1098 0000961   2.1456 357.9724 14.19538968705895
COSMOS 2476 [GLONASS-M] 
1 37867U 11064A   25162.49877913 -.00000017  00000+0  00000+0 0  9994
2 37867  65.0602  85.4062 0022717 239.5808 305.4595  2.13101598105918
COSMOS 2477 [GLONASS-M] 
1 37868U 11064B   25161.33214788 -.00000028  00000+0  00000+0 0  9994
2 37868  65.0665  85.5216 0019914 241.1431 308.8522  2.13103130105838
COSMOS 2475 [GLONASS-M] 
1 37869U 11064C   25162.79722683 -.00000014  00000+0  00000+0 0  9999
2 37869  65.0741  85.4902 0025365 254.6767 296.0489  2.13101951105865
YAOGAN-12               
1 37875U 11066B   25162.83433910  .00005719  00000+0  23978-3 0  9994
2 37875  97.1658 213.6239 0011560 111.9749 248.2719 15.23813758756182
CHUANGXIN 1-03 (CX-1-03)
1 37930U 11068A   25162.88836987  .00000052  00000+0  37047-4 0  9992
2 37930  98.7126 175.0313 0016015 119.7835 359.2692 14.30423682710090
SHIYAN-4 (SY-4)         
1 37931U 11068B   25161.77944975  .00000116  00000+0  60961-4 0  9999
2 37931  98.7113 175.1095 0023505 152.9290  20.3565 14.30933192705777
ASIASAT 7               
1 37933U 11069A   25162.11364041 -.00000314  00000+0  00000+0 0  9995
2 37933   0.0367 251.7998 0001809 173.4694 340.8499  1.00269932 49749
BEIDOU-2 IGSO-5         
1 37948U 11073A   25162.86025802 -.00000173  00000+0  00000+0 0  9990
2 37948  48.3541 276.1217 0107802 220.0241 168.5080  1.00289877 49691
LUCH-5A                 
1 37951U 11074B   25162.52991691 -.00000035  00000+0  00000+0 0  9993
2 37951   7.8101  79.3627 0002991  13.5638 164.8990  1.00276521 49470
SSOT                    
1 38011U 11076E   25162.86001806  .00000955  00000+0  12665-3 0  9994
2 38011  97.8564 226.1315 0001314 103.5277   8.2866 14.82098840729538
PLEIADES 1A             
1 38012U 11076F   25162.82441001  .00000243  00000+0  62076-4 0  9998
2 38012  98.1983 238.2263 0001261 108.5448   5.0895 14.58553688718017
NIGCOMSAT 1R            
1 38014U 11077A   25161.86711488  .00000164  00000+0  00000+0 0  9999
2 38014   0.0496 144.4771 0001141 256.5425 213.1264  1.00269486 49302
ZIYUAN 1-02C (ZY 1-02C) 
1 38038U 11079A   25162.84586618  .00000350  00000+0  13077-3 0  9990
2 38038  98.4532 232.0377 0005947 346.3643 138.0369 14.37771698706032
GLOBALSTAR M084         
1 38040U 11080A   25161.90182219 -.00000105  00000+0 -82775-5 0  9993
2 38040  52.0019  67.6080 0000929  48.5525  43.2514 12.62266616621871
GLOBALSTAR M080         
1 38041U 11080B   25162.81283095 -.00000102  00000+0  78132-5 0  9997
2 38041  52.0071  66.4246 0000782  96.8065 306.5094 12.62263309622250
GLOBALSTAR M082         
1 38042U 11080C   25162.90077222 -.00000093  00000+0  60244-4 0  9994
2 38042  52.0096  21.6179 0000883 107.8020 265.8580 12.62266548623001
GLOBALSTAR M092         
1 38043U 11080D   25162.34758375 -.00000127  00000+0 -12730-3 0  9993
2 38043  52.0072 113.6766 0000458  44.2541  94.4404 12.62264236621427
GLOBALSTAR M090         
1 38044U 11080E   25161.83377123 -.00000086  00000+0  10106-3 0  9993
2 38044  52.0144  18.6998 0000736  92.4732 351.0727 12.62273541622818
GLOBALSTAR M086         
1 38045U 11080F   25161.92386422 -.00000091  00000+0  69946-4 0  9999
2 38045  51.9919  18.9563 0000727 357.6933  15.8906 12.62271370622774
ZIYUAN 3-1 (ZY 3-1)     
1 38046U 12001A   25162.85501993  .00016277  00000+0  26353-3 0  9995
2 38046  97.1981 227.4722 0001260 276.1533  83.9577 15.52882866746388
